UNKNOWN                 
1 81893U          26064.41931547  .00001287  00000+0  13538-2 0  9990
2 81893 100.0569  57.3222 0021893  57.6079 302.7183 13.76901658615451
UNKNOWN                 
1 81899U          26063.25534464  .00001922  00000+0  45307-2 0  9999
2 81899 102.4116 184.7507 0170293  42.7859 318.6362 13.20456600589740
UNKNOWN                 
1 81921U          26062.08620288  .00001918  00000+0  80283-3 0  9993
2 81921  65.7062 230.7222 0843493  79.7316 289.7632 13.15432327 36356
UNKNOWN                 
1 81946U          26058.84740345  .00000111  00000+0  53335-3 0  9998
2 81946  66.4234   4.3155 0677665 314.2110  69.7902 12.42640677557461
UNKNOWN                 
1 81947U          26046.26945095  .00004726  00000+0  46514-3 0  9998
2 81947  66.0766 348.0426 0369408 102.1486 262.1250 14.53453444640398
UNKNOWN                 
1 81964U          26064.35963971  .00000333  00000+0  29999-3 0  9998
2 81964  66.5845  53.5881 0033377  20.3688 339.8714 13.95855465625575
UNKNOWN                 
1 81969U          26062.42138690  .00012230  00000+0  68831-3 0  9998
2 81969  86.6835 118.3770 0003180 201.5410 158.5696 15.13136350452361
UNKNOWN                 
1 81995U          26063.96248604  .00005163  00000+0  96399-3 0  9991
2 81995  65.7446 268.6872 0516129 256.6593  97.6465 14.04989219615775
UNKNOWN                 
1 82043U          26063.84720040  .00006584  00000+0  17997-2 0  9996
2 82043  97.9370 210.7228 0230360 196.2055 163.1678 14.33026740585604
UNKNOWN                 
1 82051U          26046.47695657  .00006292  00000+0  20421-2 0  9992
2 82051  98.7424 137.9574 0090792  69.8098 291.2824 14.36892613581707
UNKNOWN                 
1 82073U          26064.14028543  .00002576  00000+0  65510-3 0  9994
2 82073  97.7402 137.4107 0206181  36.4819 325.0218 14.39453949586970
UNKNOWN                 
1 82139U          26063.98220889  .00003148  00000+0  15670-2 0  9992
2 82139  99.0127 137.8384 0084510 169.2082 191.0930 14.15880577491758
